[{"OBJECT_NAME":"STARLINK-5029","OBJECT_ID":"2022-119B","EPOCH":"2026-03-09T21:25:31.267200","MEAN_MOTION":15.08838572,"ECCENTRICITY":0.00016398,"INCLINATION":53.2179,"RA_OF_ASC_NODE":323.3237,"ARG_OF_PERICENTER":85.7431,"MEAN_ANOMALY":274.3749,"EPHEMERIS_TYPE":0,"CLASSIFICATION_TYPE":"U","NORAD_CAT_ID":53887,"ELEMENT_SET_NO":999,"REV_AT_EPOCH":19171,"BSTAR":8.4794448e-5,"MEAN_MOTION_DOT":1.062e-5,"MEAN_MOTION_DDOT":0},{"OBJECT_NAME":"FENGYUN 1C DEB","OBJECT_ID":"1999-025JS","EPOCH":"2026-03-09T09:31:11.592480","MEAN_MOTION":14.89836418,"ECCENTRICITY":0.01602799,"INCLINATION":99.0124,"RA_OF_ASC_NODE":19.279,"ARG_OF_PERICENTER":316.4187,"MEAN_ANOMALY":42.4455,"EPHEMERIS_TYPE":0,"CLASSIFICATION_TYPE":"U","NORAD_CAT_ID":29944,"ELEMENT_SET_NO":999,"REV_AT_EPOCH":1743,"BSTAR":0.0013476123,"MEAN_MOTION_DOT":0.00016456,"MEAN_MOTION_DDOT":0}]
